stk.v.11.0
    
    # WrittenBy    STK_v11.4.0
    
    BEGIN Ephemeris
        NumberOfEphemerisPoints		 6594
        ScenarioEpoch		 2021-08-01 00:00:00
        InterpolationMethod		 Lagrange
        InterpolationSamplesM1		 7
        CentralBody		 Earth
        CoordinateSystem		 Custom TopoCentric Facility/Launch
    
        EphemerisTimePosVel	
301.120605274281 -117.62858924040829 399.5837818044317 1863.5059482402162 0.02648158884072839 1.536226339639014 6.124536815246708
301.41978690182674 -117.62047667398093 400.04334615620536 1865.3421855086037 0.027742851338193486 1.5359174111004166 6.132431414715086
301.7189685293725 -117.6119931800569 400.5028188670859 1867.1788053155767 0.028961567966983934 1.535613706929764 6.136378628201234
302.0793487584677 -117.60129941383009 401.0561587658578 1869.3917794351548 0.030376079294072347 1.5352546296521505 6.134568714203016
302.4825427664724 -117.58874384213944 401.6750846589031 1871.86865287452 0.03189332478133923 1.5348613799254114 6.122759261752041
302.7738555669426 -117.57929833556733 402.1221687209587 1873.6563656384237 0.032949042621857084 1.5345826675444902 6.132710925894725
303.06516836741275 -117.56955001571784 402.56917223707967 1875.444633109266 0.0339725308037564 1.5343083763580614 6.137000738992786
303.4299644659758 -117.55692965689603 403.1288202019505 1877.6847259894705 0.035210956722407094 1.5339709710263982 6.135135402840583
303.7982658850367 -117.54373829405273 403.69372218194155 1879.9465210804583 0.03641503038436828 1.5336369897611406 6.131551473581808
304.1665673040976 -117.53011163552637 404.2585023595877 1882.2086250748725 0.0375751663312889 1.533309511550287 6.125029197017312
304.5046891812035 -117.51723182265496 404.77689781543927 1884.2848491749032 0.03860357884202813 1.5330144320794494 6.124387368267446
304.8102893426205 -117.5052962467475 405.24534709721775 1886.1605970346761 0.03950434987906248 1.5327521965866815 6.131345227635839
305.1198966175132 -117.49292757838057 405.7198577448389 1888.06127412993 0.04039037357067442 1.5324907368740794 6.134919003490813
305.46848901758693 -117.47867833209474 406.2540217717602 1890.2017987205113 0.041357406171919756 1.5322013061751747 6.133825042114631
305.8478948141505 -117.46279294891204 406.8352889820501 1892.5321228230794 0.04237487852325011 1.5318920957423003 6.126862781737336
306.1578913088948 -117.44953144959568 407.3101315805541 1894.4350313269638 0.043180369485350686 1.531643826756544 6.1321206532301975
306.46788780363914 -117.43602371717652 407.7848978133556 1896.3381315089173 0.043963652373192295 1.5313993932897565 6.135352505384234
306.8230790453676 -117.42025265774505 408.32878839979594 1898.5192370430518 0.04483499579018546 1.5311239250742223 6.133634235849105
307.2078927106283 -117.40282271180666 408.9179292489981 1900.882925419739 0.04574893237086102 1.5308308867028149 6.125102160649885
307.5103133196605 -117.3888814021508 409.38084973212034 1902.7391266792552 0.046446206484424685 1.5306044351014412 6.1322486169867
307.8127339286927 -117.37473191549289 409.843702232787 1904.5956499982246 0.04712578429728033 1.5303812858003008 6.136050589140786
308.17070347474186 -117.35772157850997 410.3914854633521 1906.7938141915156 0.04790822743266871 1.5301213178383621 6.134324281093515
308.5675682319162 -117.33854073893329 410.9986803429024 1909.231700524396 0.04874905544728901 1.5298382545504958 6.123762440998852
308.86315536632645 -117.3240408063889 411.4508501258681 1911.0457745397644 0.04935788103922021 1.5296308602431652 6.132569020029924
309.1587425007367 -117.30936303809595 411.9029590303686 1912.860305905638 0.04995241159666301 1.5294263290724517 6.136682202153429
309.52121945562374 -117.2911270957433 412.4572959383554 1915.086157446996 0.050662696518130906 1.5291793355770236 6.134835923290003
309.88660464452926 -117.27248796507834 413.0159905674385 1917.330024427171 0.05135856372135123 1.5289345215640815 6.131474641360426
310.2519898334348 -117.25359813605571 413.5745964924807 1919.5741505609853 0.052035074519295524 1.5286937813409869 6.125662556648182
310.52774938897267 -117.23918024066361 413.99612374638383 1921.2661667135415 0.052531632585294946 1.5285153347601836 6.128571291255074
310.80350894451055 -117.22462687143016 414.4176021137868 1922.9577805592405 0.05301784968708176 1.5283391540317823 6.1338913959220545
311.17005204356803 -117.2050773652513 414.9777618621524 1925.2071688507642 0.05364892361190882 1.5281083150149737 6.132437412998299
311.55508654760996 -117.18429594306868 415.5660902496105 1927.5703634914712 0.05429383014647619 1.5278698462463518 6.127721733107927
311.8911984256672 -117.16595459726929 416.0795909361669 1929.6328342967713 0.05484230027044375 1.527664960867009 6.128153006973798
312.22731030372444 -117.14743110318376 416.59302326272353 1931.6953045767139 0.055377763289522805 1.5274630659361041 6.128575996532966
312.57721771660516 -117.12795842920315 417.1274575925445 1933.842648764634 0.05592187746621643 1.5272559914360226 6.126861130585222
312.92812676381794 -117.10824112732936 417.6633495571876 1935.9962168792315 0.05645438354642755 1.5270514367839227 6.124448584068103
313.2644800602171 -117.08916835506837 418.17694577095483 1938.0601853693902 0.05695286256458725 1.5268582284466006 6.124842110478012
313.5880650829265 -117.07066311981235 418.670984503325 1940.0455530034628 0.057421765351980625 1.5266749414206484 6.1276234319522365
313.9165957673664 -117.05172152365661 419.1725138469842 1942.0613893584082 0.05788749845136278 1.5264913946659036 6.129151221886441
314.26355802899184 -117.03155299519867 419.702115517613 1944.1905963666431 0.058368424829068365 1.5263002730560489 6.128047206657917
314.620741955741 -117.01061800095304 420.2472507294661 1946.3827563664956 0.0588521782784401 1.5261063804259072 6.1247482582261625
314.9653603822482 -116.99025755673486 420.77314326336847 1948.4976355700264 0.05930837571981808 1.525921999441626 6.123264061028709
315.28899270368845 -116.97099536545723 421.2669532437598 1950.4832664535616 0.05972767688727344 1.525751202388915 6.126369250957393
315.6087743106768 -116.951830432522 421.75483372475503 1952.4452694600402 0.06013358693351016 1.525584633965391 6.129337789913304
315.947996659553 -116.93135999089952 422.2723164876555 1954.5268668392152 0.060555324686189335 1.5254102785003207 6.129339416789093
316.30874794932936 -116.90943513142018 422.82257715517505 1956.7409193333797 0.06099414682947523 1.5252274461342215 6.125983347591728
316.66503553752216 -116.88762788136484 423.36596497790305 1958.927663896983 0.0614180600975524 1.5250494402001793 6.121928836548797
316.994062528643 -116.8673564013515 423.86772066968365 1960.9465020207333 0.06180143625019719 1.5248872706559038 6.124102283829261
317.30624009953675 -116.84800751781387 424.3437325098888 1962.8616660370367 0.06215820184866856 1.5247353351620256 6.128853871508103
317.63286392425096 -116.82764516782167 424.8417217034686 1964.865794821784 0.062524412147385 1.5245783420070713 6.130406782187867
317.99131179971295 -116.80516259466708 425.38817303044755 1967.0656155362362 0.0629182317904377 1.5244083301787164 6.127969615423586
318.3605360333601 -116.7818580865527 425.95098957341145 1969.3319522782826 0.06331532981461693 1.5242356488454405 6.121805981378349
318.7020020357468 -116.76017643124831 426.47143727160955 1971.4274634698618 0.06367507852673054 1.5240781102407364 6.120679816475511
319.0110423105143 -116.74044874393046 426.94241698696527 1973.3232011272073 0.06399463634081629 1.5239372868237118 6.1272452760662715
319.32187614068886 -116.72050782267456 427.41608645160875 1975.230216765394 0.06431042702050747 1.5237972980118517 6.130954635846506
319.6694868605307 -116.69809238205669 427.9457477942041 1977.363371783924 0.06465708353941668 1.5236426729594659 6.130107878521715
320.0484665267413 -116.6735182387985 428.5231457985296 1979.6895900326601 0.06502743009909025 1.5234763677466558 6.123697051061421
320.3627711619434 -116.65303232830047 429.0019600432174 1981.6178260629313 0.06532873795684702 1.5233402079527134 6.128279375690338
320.67707579714545 -116.63245252777504 429.48073173974433 1983.5462129019031 0.06562489829859962 1.5232056184683835 6.131258685591395
321.0326872172418 -116.6090568716894 430.0223742496467 1985.7285503294836 0.06595393856212928 1.5230552003257154 6.129558488220787
321.41450984874314 -116.58380781750328 430.60388070226435 1988.0723498356926 0.06630029014861188 1.522895851145288 6.121826789072978
321.7209976511658 -116.56344564471512 431.07061031089023 1989.9524251698972 0.06657324826173784 1.522769526970149 6.128330672396999
322.0274854535885 -116.54300048848141 431.53730141572504 1991.8327751809043 0.06684182013521967 1.5226445890929599 6.131977057462053
322.3852128115597 -116.51903406770005 432.08196721219014 1994.0280911332197 0.06714988502647805 1.5225004867680487 6.1303171545552155
322.7787049280562 -116.49254551306858 432.6810283073157 1996.4436858283086 0.06748220503681131 1.5223440809442612 6.120717947002765
323.0789770979289 -116.47224498962825 433.1381281358957 1998.2854730847355 0.06773130863374482 1.5222261833493682 6.1286588214152244
323.3792492678016 -116.4518702381315 433.59519274941266 2000.1276485801513 0.06797662471310836 1.5221095233874697 6.132612536955816
323.7413742508196 -116.42720136692675 434.1463614010565 2002.3499646130344 0.06826755677116605 1.521970451507595 6.1307985934324885
324.1060608011426 -116.40225248845556 434.70137828381104 2004.588142597079 0.06855525278261408 1.5218321529126289 6.127625933957136
324.47074735146555 -116.37719963807167 435.25634504741504 2006.8265444190913 0.06883777898549995 1.5216955845377143 6.122356865702266
324.8102556989881 -116.35378463503507 435.7729520361864 2008.9099751135066 0.06909627400472783 1.521569971747285 6.121859539326599
325.12226454232325 -116.33218941963332 436.2476774817504 2010.824024454254 0.06933007851609992 1.5214558091470964 6.127463528406827
